{
  "type": "FeatureCollection",
  "features": [
    {
      "type": "Feature",
      "properties": {
        "norad_id": 31535,
        "name": "FENGYUN 1C DEB",
        "group": "fengyun-1c-debris",
        "lat": 79.90860673294804,
        "lon": 60.14378113752743,
        "alt_km": 796.5280744410347,
        "timestamp": "2025-12-02T21:34:01.553981+00:00",
        "meta_object_name": "FENGYUN 1C DEB",
        "meta_object_id": "1999-025BYA",
        "meta_epoch": "2025-12-02T09:20:37.477824",
        "meta_mean_motion": 14.28270054,
        "meta_eccentricity": 0.008731,
        "meta_inclination": 98.0363,
        "meta_ra_of_asc_node": 187.1309,
        "meta_arg_of_pericenter": 193.9854,
        "meta_mean_anomaly": 165.891,
        "meta_ephemeris_type": 0,
        "meta_classification_type": "U",
        "meta_norad_cat_id": 31535,
        "meta_element_set_no": 999,
        "meta_rev_at_epoch": 71783,
        "meta_bstar": 0.00091789,
        "meta_mean_motion_dot": 2.346e-05,
        "meta_mean_motion_ddot": 0,
        "tle_line1": "1 31535U 99025BYA 25336.38932266  .00002346  00000+0  91789-3 0  9991",
        "tle_line2": "2 31535  98.0363 187.1309 0087310 193.9854 165.8910 14.28270054717834"
      },
      "geometry": {
        "type": "Point",
        "coordinates": [
          60.14378113752743,
          79.90860673294804
        ]
      }
    },
    {
      "type": "Feature",
      "properties": {
        "norad_id": 31536,
        "name": "FENGYUN 1C DEB",
        "group": "fengyun-1c-debris",
        "lat": 73.67120889536471,
        "lon": 94.03949868399789,
        "alt_km": 631.9137730090733,
        "timestamp": "2025-12-02T21:34:01.553991+00:00",
        "meta_object_name": "FENGYUN 1C DEB",
        "meta_object_id": "1999-025BYB",
        "meta_epoch": "2025-12-02T04:33:41.322240",
        "meta_mean_motion": 14.54098664,
        "meta_eccentricity": 0.0294452,
        "meta_inclination": 98.2355,
        "meta_ra_of_asc_node": 243.7138,
        "meta_arg_of_pericenter": 177.3497,
        "meta_mean_anomaly": 182.9347,
        "meta_ephemeris_type": 0,
        "meta_classification_type": "U",
        "meta_norad_cat_id": 31536,
        "meta_element_set_no": 999,
        "meta_rev_at_epoch": 96104,
        "meta_bstar": 0.0011132,
        "meta_mean_motion_dot": 8.368e-05,
        "meta_mean_motion_ddot": 0,
        "tle_line1": "1 31536U 99025BYB 25336.19006160  .00008368  00000+0  11132-2 0  9999",
        "tle_line2": "2 31536  98.2355 243.7138 0294452 177.3497 182.9347 14.54098664961045"
      },
      "geometry": {
        "type": "Point",
        "coordinates": [
          94.03949868399789,
          73.67120889536471
        ]
      }
    },
    {
      "type": "Feature",
      "properties": {
        "norad_id": 31537,
        "name": "FENGYUN 1C DEB",
        "group": "fengyun-1c-debris",
        "lat": -55.857418421053175,
        "lon": -64.44471997353126,
        "alt_km": 933.1478273886696,
        "timestamp": "2025-12-02T21:34:01.554002+00:00",
        "meta_object_name": "FENGYUN 1C DEB",
        "meta_object_id": "1999-025BYC",
        "meta_epoch": "2025-12-01T15:41:22.536384",
        "meta_mean_motion": 14.20074958,
        "meta_eccentricity": 0.0349482,
        "meta_inclination": 99.2927,
        "meta_ra_of_asc_node": 128.2172,
        "meta_arg_of_pericenter": 355.9583,
        "meta_mean_anomaly": 3.8786,
        "meta_ephemeris_type": 0,
        "meta_classification_type": "U",
        "meta_norad_cat_id": 31537,
        "meta_element_set_no": 999,
        "meta_rev_at_epoch": 93124,
        "meta_bstar": 0.0016093722,
        "meta_mean_motion_dot": 6.299e-05,
        "meta_mean_motion_ddot": 0,
        "tle_line1": "1 31537U 99025BYC 25335.65373306  .00006299  00000+0  16094-2 0  9992",
        "tle_line2": "2 31537  99.2927 128.2172 0349482 355.9583   3.8786 14.20074958931241"
      },
      "geometry": {
        "type": "Point",
        "coordinates": [
          -64.44471997353126,
          -55.857418421053175
        ]
      }
    },
    {
      "type": "Feature",
      "properties": {
        "norad_id": 31538,
        "name": "FENGYUN 1C DEB",
        "group": "fengyun-1c-debris",
        "lat": -2.2955829597414956,
        "lon": 24.691967087309976,
        "alt_km": 584.9550845320173,
        "timestamp": "2025-12-02T21:34:01.554012+00:00",
        "meta_object_name": "FENGYUN 1C DEB",
        "meta_object_id": "1999-025BYD",
        "meta_epoch": "2025-11-18T21:37:36.814656",
        "meta_mean_motion": 14.96885168,
        "meta_eccentricity": 0.00235351,
        "meta_inclination": 98.2479,
        "meta_ra_of_asc_node": 190.2519,
        "meta_arg_of_pericenter": 356.6213,
        "meta_mean_anomaly": 3.4844,
        "meta_ephemeris_type": 0,
        "meta_classification_type": "U",
        "meta_norad_cat_id": 31538,
        "meta_element_set_no": 999,
        "meta_rev_at_epoch": 66646,
        "meta_bstar": 0.0047226763,
        "meta_mean_motion_dot": 0.00054817,
        "meta_mean_motion_ddot": 0,
        "tle_line1": "1 31538U 99025BYD 25322.90112054  .00054817  00000+0  47227-2 0  9999",
        "tle_line2": "2 31538  98.2479 190.2519 0023535 356.6213   3.4844 14.96885168666469"
      },
      "geometry": {
        "type": "Point",
        "coordinates": [
          24.691967087309976,
          -2.2955829597414956
        ]
      }
    },
    {
      "type": "Feature",
      "properties": {
        "norad_id": 31540,
        "name": "FENGYUN 1C DEB",
        "group": "fengyun-1c-debris",
        "lat": 72.30444177212654,
        "lon": 105.329139143179,
        "alt_km": 696.1832210213461,
        "timestamp": "2025-12-02T21:34:01.554022+00:00",
        "meta_object_name": "FENGYUN 1C DEB",
        "meta_object_id": "1999-025BYF",
        "meta_epoch": "2025-11-30T16:47:12.586272",
        "meta_mean_motion": 14.65204922,
        "meta_eccentricity": 0.01774904,
        "meta_inclination": 99.0563,
        "meta_ra_of_asc_node": 132.9014,
        "meta_arg_of_pericenter": 338.1522,
        "meta_mean_anomaly": 21.2175,
        "meta_ephemeris_type": 0,
        "meta_classification_type": "U",
        "meta_norad_cat_id": 31540,
        "meta_element_set_no": 999,
        "meta_rev_at_epoch": 98125,
        "meta_bstar": 0.00061965123,
        "meta_mean_motion_dot": 4.14e-05,
        "meta_mean_motion_ddot": 0,
        "tle_line1": "1 31540U 99025BYF 25334.69945123  .00004140  00000+0  61965-3 0  9992",
        "tle_line2": "2 31540  99.0563 132.9014 0177490 338.1522  21.2175 14.65204922981257"
      },
      "geometry": {
        "type": "Point",
        "coordinates": [
          105.329139143179,
          72.30444177212654
        ]
      }
    },
    {
      "type": "Feature",
      "properties": {
        "norad_id": 31541,
        "name": "FENGYUN 1C DEB",
        "group": "fengyun-1c-debris",
        "lat": -54.58201637636531,
        "lon": -74.50792481521974,
        "alt_km": 627.1911100922453,
        "timestamp": "2025-12-02T21:34:01.554032+00:00",
        "meta_object_name": "FENGYUN 1C DEB",
        "meta_object_id": "1999-025BYG",
        "meta_epoch": "2025-12-01T08:30:59.377824",
        "meta_mean_motion": 14.68534389,
        "meta_eccentricity": 0.00787181,
        "meta_inclination": 98.9786,
        "meta_ra_of_asc_node": 116.6445,
        "meta_arg_of_pericenter": 275.4502,
        "meta_mean_anomaly": 83.7725,
        "meta_ephemeris_type": 0,
        "meta_classification_type": "U",
        "meta_norad_cat_id": 31541,
        "meta_element_set_no": 999,
        "meta_rev_at_epoch": 98256,
        "meta_bstar": 0.0014195856,
        "meta_mean_motion_dot": 8.577e-05,
        "meta_mean_motion_ddot": 0,
        "tle_line1": "1 31541U 99025BYG 25335.35485391  .00008577  00000+0  14196-2 0  9994",
        "tle_line2": "2 31541  98.9786 116.6445 0078718 275.4502  83.7725 14.68534389982569"
      },
      "geometry": {
        "type": "Point",
        "coordinates": [
          -74.50792481521974,
          -54.58201637636531
        ]
      }
    },
    {
      "type": "Feature",
      "properties": {
        "norad_id": 31542,
        "name": "FENGYUN 1C DEB",
        "group": "fengyun-1c-debris",
        "lat": -62.4876021522171,
        "lon": 48.156557563713996,
        "alt_km": 806.8908363052615,
        "timestamp": "2025-12-02T21:34:01.554042+00:00",
        "meta_object_name": "FENGYUN 1C DEB",
        "meta_object_id": "1999-025BYH",
        "meta_epoch": "2025-12-02T10:03:05.254848",
        "meta_mean_motion": 14.22699156,
        "meta_eccentricity": 0.0047037,
        "meta_inclination": 98.733,
        "meta_ra_of_asc_node": 30.5165,
        "meta_arg_of_pericenter": 236.5507,
        "meta_mean_anomaly": 123.117,
        "meta_ephemeris_type": 0,
        "meta_classification_type": "U",
        "meta_norad_cat_id": 31542,
        "meta_element_set_no": 999,
        "meta_rev_at_epoch": 95793,
        "meta_bstar": 0.0016592,
        "meta_mean_motion_dot": 3.715e-05,
        "meta_mean_motion_ddot": 0,
        "tle_line1": "1 31542U 99025BYH 25336.41881082  .00003715  00000+0  16592-2 0  9991",
        "tle_line2": "2 31542  98.7330  30.5165 0047037 236.5507 123.1170 14.22699156957939"
      },
      "geometry": {
        "type": "Point",
        "coordinates": [
          48.156557563713996,
          -62.4876021522171
        ]
      }
    }
  ]
}